SatCatId,ObjectName,LaunchYear,OrbitalPeriod,LaunchMass,StatusCode,Inclination,Status,UcsData,OrbitClassEstimated,LaunchSiteCountry,Owner,UseType,Purpose,LaunchVehicleClass,TLE1,TLE2,MeanMotion,Eccentricity,OrbitClass
61692,STARLINK-11315 [DTC],2024,91.74,-1.0,+,53.16,Active,0,LEO,USA,USA,Unknown,Unknown,Unknown,1 61692U 24195F   25204.36372232  .00000874  00000+0  12061-4 0  9998,2 61692  53.1596  76.8847 0000774 105.4022 254.7082 15.69714869 43019,15.69714869,7.74e-05,LEO
61693,STARLINK-11366 [DTC],2024,91.74,-1.0,+,53.16,Active,0,LEO,USA,USA,Unknown,Unknown,Unknown,1 61693U 24195G   25204.35391317  .00000190  00000+0  64268-5 0  9991,2 61693  53.1599  76.8172 0001119  82.0920 278.0225 15.69715546 43016,15.69715546,0.0001119,LEO
61694,STARLINK-11348 [DTC],2024,91.74,-1.0,+,53.16,Active,0,LEO,USA,USA,Unknown,Unknown,Unknown,1 61694U 24195H   25204.34900553  .00001338  00000+0  15897-4 0  9997,2 61694  53.1595  76.7846 0001101  68.7618 291.3517 15.69718415 43016,15.69718415,0.0001101,LEO
61695,STARLINK-11327 [DTC],2024,91.74,-1.0,+,53.16,Active,0,LEO,USA,USA,Unknown,Unknown,Unknown,1 61695U 24195J   25204.34409969  .00001097  00000+0  13904-4 0  9992,2 61695  53.1581  76.7548 0000644  72.4378 287.6710 15.69720002 43015,15.69720002,6.44e-05,LEO
61696,STARLINK-11341 [DTC],2024,91.74,-1.0,+,53.16,Active,0,LEO,USA,USA,Unknown,Unknown,Unknown,1 61696U 24195K   25203.95717586  .00000635  00000+0  10085-4 0  9990,2 61696  53.1589  78.6005 0000644  54.6175 305.4903 15.69722166 42958,15.69722166,6.44e-05,LEO
61697,STARLINK-11346 [DTC],2024,91.74,-1.0,+,53.16,Active,0,LEO,USA,USA,Unknown,Unknown,Unknown,1 61697U 24195L   25203.88861051 -.00000453  00000+0  11180-5 0  9997,2 61697  53.1590  78.8838 0001045  82.2669 277.8468 15.69711653 42944,15.69711653,0.0001045,LEO
61698,STARLINK-11336 [DTC],2024,91.73,-1.0,+,53.16,Active,0,LEO,USA,USA,Unknown,Unknown,Unknown,1 61698U 24195M   25204.05092434  .00098911  00000+0  81000-3 0  9990,2 61698  53.1571  71.1682 0000724  93.3142 266.7959 15.69756986 43063,15.69756986,7.24e-05,LEO
61699,STARLINK-11296 [DTC],2024,91.74,-1.0,+,53.16,Active,0,LEO,USA,USA,Unknown,Unknown,Unknown,1 61699U 24195N   25204.06979778  .00000632  00000+0  10061-4 0  9990,2 61699  53.1587  77.8789 0000695  97.1065 263.0032 15.69721516 42977,15.69721516,6.95e-05,LEO
61700,STARLINK-32349,2024,94.11,-1.0,+,53.16,Active,0,LEO,USA,USA,Unknown,Unknown,Unknown,1 61700U 24195P   25204.52096380  .00003614  00000+0  13412-3 0  9998,2 61700  53.1607 139.9008 0001409 108.0047 252.1108 15.30194488 42099,15.30194488,0.0001409,LEO
61701,STARLINK-32461,2024,94.11,-1.0,+,53.16,Active,0,LEO,USA,USA,Unknown,Unknown,Unknown,1 61701U 24195Q   25204.11957862  .00000411  00000+0  26013-4 0  9999,2 61701  53.1607 141.6611 0001210  87.9231 272.1909 15.30199571 42033,15.30199571,0.000121,LEO
61702,STARLINK-32299,2024,94.11,-1.0,+,53.16,Active,0,LEO,USA,USA,Unknown,Unknown,Unknown,1 61702U 24195R   25204.23649340  .00001750  00000+0  71200-4 0  9997,2 61702  53.1596 140.9682 0001326  97.1525 262.9627 15.30201359 42120,15.30201359,0.0001326,LEO
61703,STARLINK-32335,2024,94.1,-1.0,+,53.16,Active,0,LEO,USA,USA,Unknown,Unknown,Unknown,1 61703U 24195S   25204.55671462  .00003043  00000+0  11477-3 0  9999,2 61703  53.1606 139.4087 0001464  90.7964 269.3204 15.30216626 42174,15.30216626,0.0001464,LEO
61704,STARLINK-32387,2024,94.11,-1.0,+,53.16,Active,0,LEO,USA,USA,Unknown,Unknown,Unknown,1 61704U 24195T   25204.54195479  .00000538  00000+0  30303-4 0  9994,2 61704  53.1604 139.3173 0001328  96.7012 263.4140 15.30196442 42006,15.30196442,0.0001328,LEO
61705,STARLINK-32515,2024,94.11,-1.0,+,53.16,Active,0,LEO,USA,USA,Unknown,Unknown,Unknown,1 61705U 24195U   25204.54101465  .00000653  00000+0  34179-4 0  9990,2 61705  53.1597 140.0227 0001245  97.3286 262.7856 15.30194909 42007,15.30194909,0.0001245,LEO
61706,STARLINK-32533,2024,94.11,-1.0,+,53.16,Active,0,LEO,USA,USA,Unknown,Unknown,Unknown,1 61706U 24195V   25204.54407320  .00004979  00000+0  18016-3 0  9996,2 61706  53.1597 139.3305 0001785 100.5093 259.6109 15.30194370 42107,15.3019437,0.0001785,LEO
61707,STARLINK-32376,2024,94.11,-1.0,+,53.16,Active,0,LEO,USA,USA,Unknown,Unknown,Unknown,1 61707U 24196A   25204.38530655 -.00000389  00000+0 -10103-5 0  9992,2 61707  53.1599  86.1117 0001293  96.4317 263.6831 15.30197496 42060,15.30197496,0.0001293,LEO
61708,STARLINK-32402,2024,94.11,-1.0,+,53.16,Active,0,LEO,USA,USA,Unknown,Unknown,Unknown,1 61708U 24196B   25203.95659825  .00000943  00000+0  43963-4 0  9999,2 61708  53.1606  88.4113 0001253  72.2871 287.8266 15.30195838 41982,15.30195838,0.0001253,LEO
61709,STARLINK-32314,2024,94.11,-1.0,+,53.16,Active,0,LEO,USA,USA,Unknown,Unknown,Unknown,1 61709U 24196C   25204.39902653  .00001130  00000+0  50285-4 0  9993,2 61709  53.1596  86.1938 0001270  89.9695 270.1451 15.30193717 42053,15.30193717,0.000127,LEO
61710,STARLINK-32404,2024,94.11,-1.0,+,53.16,Active,0,LEO,USA,USA,Unknown,Unknown,Unknown,1 61710U 24196D   25204.36960428  .00000842  00000+0  40565-4 0  9995,2 61710  53.1594  86.7256 0000893  66.2749 293.8345 15.30192375 42042,15.30192375,8.93e-05,LEO
61711,STARLINK-32312,2024,94.11,-1.0,+,53.16,Active,0,LEO,USA,USA,Unknown,Unknown,Unknown,1 61711U 24196E   25204.06506583  .00000135  00000+0  16675-4 0  9991,2 61711  53.1601  87.6640 0001304  91.0287 269.0863 15.30191772 42006,15.30191772,0.0001304,LEO
61712,STARLINK-32343,2024,94.11,-1.0,+,53.16,Active,0,LEO,USA,USA,Unknown,Unknown,Unknown,1 61712U 24196F   25203.90183429 -.00000648  00000+0 -97652-5 0  9990,2 61712  53.1612  88.7847 0000900  94.7475 265.3628 15.30203910 41971,15.3020391,9e-05,LEO
61713,STARLINK-32467,2024,94.11,-1.0,+,53.16,Active,0,LEO,USA,USA,Unknown,Unknown,Unknown,1 61713U 24196G   25204.38120331  .00000090  00000+0  15180-4 0  9991,2 61713  53.1600  86.7963 0001119  90.7012 269.4117 15.30191605 42046,15.30191605,0.0001119,LEO
61714,STARLINK-32440,2024,94.11,-1.0,+,53.16,Active,0,LEO,USA,USA,Unknown,Unknown,Unknown,1 61714U 24196H   25203.96081444  .00002125  00000+0  83847-4 0  9992,2 61714  53.1608  88.4389 0001243  98.8416 261.2725 15.30202862 41986,15.30202862,0.0001243,LEO
61715,STARLINK-32459,2024,94.11,-1.0,+,53.16,Active,0,LEO,USA,USA,Unknown,Unknown,Unknown,1 61715U 24196J   25204.40535623  .00000517  00000+0  29571-4 0  9993,2 61715  53.1598  86.2356 0001297  79.2976 280.8171 15.30195645 42059,15.30195645,0.0001297,LEO
61716,STARLINK-32465,2024,94.11,-1.0,+,53.16,Active,0,LEO,USA,USA,Unknown,Unknown,Unknown,1 61716U 24196K   25204.37592760  .00001314  00000+0  56513-4 0  9997,2 61716  53.1609  86.7621 0001448 114.0865 246.0287 15.30188614 42045,15.30188614,0.0001448,LEO
61717,STARLINK-32457,2024,94.11,-1.0,+,53.16,Active,0,LEO,USA,USA,Unknown,Unknown,Unknown,1 61717U 24196L   25204.40218840  .00000270  00000+0  21260-4 0  9997,2 61717  53.1596  86.2152 0001296  78.1061 282.0085 15.30197503 42058,15.30197503,0.0001296,LEO
61718,STARLINK-32591,2024,94.11,-1.0,+,53.16,Active,0,LEO,USA,USA,Unknown,Unknown,Unknown,1 61718U 24196M   25204.36375705 -.00000433  00000+0 -24935-5 0  9993,2 61718  53.1609  73.8656 0001435  93.9186 266.1979 15.30192055 42224,15.30192055,0.0001435,LEO
61719,STARLINK-32344,2024,94.11,-1.0,+,53.16,Active,0,LEO,USA,USA,Unknown,Unknown,Unknown,1 61719U 24196N   25204.36642812  .00000002  00000+0  12203-4 0  9994,2 61719  53.1608  86.7059 0001247  99.0982 261.0160 15.30194630 42043,15.3019463,0.0001247,LEO
61720,STARLINK-32322,2024,94.11,-1.0,+,53.16,Active,0,LEO,USA,USA,Unknown,Unknown,Unknown,1 61720U 24196P   25204.37910619 -.00001147  00000+0 -26609-4 0  9998,2 61720  53.1600  86.7790 0001202  92.4836 267.6303 15.30179531 42049,15.30179531,0.0001202,LEO
61721,STARLINK-32469,2024,94.1,-1.0,+,53.16,Active,0,LEO,USA,USA,Unknown,Unknown,Unknown,1 61721U 24196Q   25204.39585410 -.00001405  00000+0 -35320-4 0  9995,2 61721  53.1589  86.1721 0001304  93.8811 266.2339 15.30208295 42050,15.30208295,0.0001304,LEO
61722,STARLINK-32438,2024,94.11,-1.0,+,53.16,Active,0,LEO,USA,USA,Unknown,Unknown,Unknown,1 61722U 24196R   25204.37275758 -.00000092  00000+0  90259-5 0  9998,2 61722  53.1606  86.7437 0001127 106.2577 253.8548 15.30197922 42049,15.30197922,0.0001127,LEO
61723,STARLINK-32540,2024,94.11,-1.0,+,53.16,Active,0,LEO,USA,USA,Unknown,Unknown,Unknown,1 61723U 24196S   25204.56864879  .00000895  00000+0  42361-4 0  9998,2 61723  53.1611  49.7766 0001344  86.8728 273.2427 15.30196533 42456,15.30196533,0.0001344,LEO
61724,STARLINK-32528,2024,94.11,-1.0,+,53.16,Active,0,LEO,USA,USA,Unknown,Unknown,Unknown,1 61724U 24196T   25204.38225621  .00000000  00000+0  12111-4 0  9993,2 61724  53.1597  86.8017 0001049  97.2638 262.8482 15.30194423 40841,15.30194423,0.0001049,LEO
61725,STARLINK-32573,2024,94.11,-1.0,+,53.16,Active,0,LEO,USA,USA,Unknown,Unknown,Unknown,1 61725U 24196U   25203.97137251  .00000072  00000+0  14548-4 0  9994,2 61725  53.1599  88.5022 0001067  83.7371 276.3752 15.30195560 41982,15.3019556,0.0001067,LEO
61726,STARLINK-32478,2024,94.11,-1.0,+,53.16,Active,0,LEO,USA,USA,Unknown,Unknown,Unknown,1 61726U 24196V   25203.96398785 -.00001200  00000+0 -28422-4 0  9997,2 61726  53.1604  88.4579 0001151  88.5821 271.5312 15.30182186 41982,15.30182186,0.0001151,LEO
61727,STARLINK-32511,2024,94.11,-1.0,+,53.16,Active,0,LEO,USA,USA,Unknown,Unknown,Unknown,1 61727U 24196W   25203.95765304  .00000399  00000+0  25583-4 0  9993,2 61727  53.1605  88.4167 0001121  87.2024 272.9105 15.30196456 41985,15.30196456,0.0001121,LEO
61728,STARLINK-32475,2024,94.11,-1.0,+,53.16,Active,0,LEO,USA,USA,Unknown,Unknown,Unknown,1 61728U 24196X   25203.95132001  .00000233  00000+0  20001-4 0  9993,2 61728  53.1595  88.3758 0001100  78.2470 281.8654 15.30194681 41987,15.30194681,0.00011,LEO
